GSAT0225 (GALILEO 29)   
1 59598U 24079A   26198.02265471 -.00000028  00000+0  00000+0 0  9990
2 59598  55.1373 100.2459 0000523 335.7440 200.6347  1.70473788 13820
GSAT0227 (GALILEO 30)   
1 59600U 24079C   26194.98582021 -.00000030  00000+0  00000+0 0  9991
2 59600  55.1303 100.3294 0002845  67.2681 292.7822  1.70473814 13828
GSAT0232 (GALILEO 32)   
1 61182U 24167A   26197.61460391  .00000049  00000+0  00000+0 0  9994
2 61182  55.1789 220.5058 0006489 233.0865 155.9296  1.70474030 11387
GSAT0226 (GALILEO 31)   
1 61183U 24167B   26199.23530194  .00000048  00000+0  00000+0 0  9993
2 61183  55.1772 220.4683 0003208 238.1517 156.8598  1.70474090 11380
BEIDOU-3 M25            
1 61186U 24168B   26197.98586484 -.00000080  00000+0  00000+0 0  9997
2 61186  54.4446 301.2059 0003354 291.8969  64.5421  1.86229973 12338
BEIDOU-3 M27            
1 61187U 24168C   26198.93552435 -.00000086  00000+0  00000+0 0  9999
2 61187  54.4391 301.1555 0000878  44.5579   3.6126  1.86230103  9830
NAVSTAR 83 (USA 440)    
1 62339U 24242A   26199.25637435 -.00000105  00000+0  00000+0 0  9994
2 62339  54.8345 332.9215 0017960   4.3098 359.1338  2.00572209 11883
QZS-6 (MICHIBIKI-6)     
1 62876U 25023A   26199.10878075 -.00000242  00000+0  00000+0 0  9991
2 62876   0.0106  32.4865 0001849  81.9866 311.0549  1.00274750  5257
COSMOS 2584 [GLONASS-K2]
1 63130U 25042A   26194.88797737 -.00000010  00000+0  00000+0 0  9994
2 63130  65.0996  71.8945 0005460 213.8001 146.2394  2.13103784 10610
NAVSTAR 84 (USA 545)    
1 64202U 25116A   26199.00063799 -.00000087  00000+0  00000+0 0  9994
2 64202  55.2557  29.8909 0008400 339.2994  22.6230  2.00573647  8493
COSMOS 2596 [GLONASS-K1]
1 65590U 25206B   26198.99341808 -.00000072  00000+0  00000+0 0  9996
2 65590  64.6146 313.9125 0011176 307.2870  78.3263  2.13100823  6578
GSAT0233 (GALILEO 33)   
1 67160U 25302A   26197.55910839 -.00000028  00000+0  00000+0 0  9996
2 67160  54.3515 101.2938 0000972 153.0482  29.7567  1.70473838  3628
GSAT0234 (GALILEO 34)   
1 67162U 25302C   26197.84918500 -.00000028  00000+0  00000+0 0  9993
2 67162  54.3544 101.2845 0002216 322.1435 218.7937  1.70473930  3689
NAVSTAR 85 (USA 581)    
1 67588U 26017A   26198.11104756 -.00000028  00000+0  00000+0 0  9990
2 67588  55.1074  87.5541 0021542 260.3436  99.4686  2.00570476432211
NAVSTAR 86 (USA 585)    
1 68791U 26087A   26199.00963472  .00000046  00000+0  00000+0 0  9990
2 68791  54.9613 206.5686 0020452 105.9232  28.4639  2.00572901  1457
