OBJECT_NAME,OBJECT_ID,EPOCH,MEAN_MOTION,ECCENTRICITY,INCLINATION,RA_OF_ASC_NODE,ARG_OF_PERICENTER,MEAN_ANOMALY,EPHEMERIS_TYPE,CLASSIFICATION_TYPE,NORAD_CAT_ID,ELEMENT_SET_NO,REV_AT_EPOCH,BSTAR,MEAN_MOTION_DOT,MEAN_MOTION_DDOT
GSAT0225 (GALILEO 29),2024-079A,2026-07-17T00:32:37.366944,1.70473788,.00005232,55.1373,100.2459,335.7440,200.6347,0,U,59598,999,1382,0,-.28E-6,0
GSAT0227 (GALILEO 30),2024-079C,2026-07-13T23:39:34.866144,1.70473814,.00028453,55.1303,100.3294,67.2681,292.7822,0,U,59600,999,1382,0,-.3E-6,0
GSAT0232 (GALILEO 32),2024-167A,2026-07-16T14:45:01.777824,1.70474030,.0006489,55.1789,220.5058,233.0865,155.9296,0,U,61182,999,1138,0,.49E-6,0
GSAT0226 (GALILEO 31),2024-167B,2026-07-18T05:38:50.087616,1.70474090,.00032081,55.1772,220.4683,238.1517,156.8598,0,U,61183,999,1138,0,.48E-6,0
BEIDOU-3 M25 (C47),2024-168B,2026-07-16T23:39:38.722176,1.86229973,.0003354,54.4446,301.2059,291.8969,64.5421,0,U,61186,999,1233,0,-.8E-6,0
BEIDOU-3 M27 (C49),2024-168C,2026-07-17T22:27:09.303840,1.86230103,.00008788,54.4391,301.1555,44.5579,3.6126,0,U,61187,999,983,0,-.86E-6,0
GPS BIII-7  (PRN 01),2024-242A,2026-07-18T06:09:10.743840,2.00572209,.00179603,54.8345,332.9215,4.3098,359.1338,0,U,62339,999,1188,0,-.105E-5,0
QZS-6 (QZSS/PRN 200),2025-023A,2026-07-18T02:36:38.656800,1.00274750,.0001849,0.0106,32.4865,81.9866,311.0549,0,U,62876,999,525,0,-.242E-5,0
COSMOS 2584 (704K),2025-042A,2026-07-13T21:18:41.244768,2.13103784,.000546,65.0996,71.8945,213.8001,146.2394,0,U,63130,999,1061,0,-.1E-6,0
GPS BIII-8  (PRN 21),2025-116A,2026-07-18T00:00:55.122336,2.00573647,.00084007,55.2557,29.8909,339.2994,22.6230,0,U,64202,999,849,0,-.87E-6,0
COSMOS 2596 (708K),2025-206B,2026-07-17T23:50:31.322112,2.13100823,.00111764,64.6146,313.9125,307.2870,78.3263,0,U,65590,999,657,0,-.72E-6,0
GSAT0233 (GALILEO 33),2025-302A,2026-07-16T13:25:06.964896,1.70473838,.00009723,54.3515,101.2938,153.0482,29.7567,0,U,67160,999,362,0,-.28E-6,0
GSAT0234 (GALILEO 34),2025-302C,2026-07-16T20:22:49.584000,1.70473930,.00022161,54.3544,101.2845,322.1435,218.7937,0,U,67162,999,368,0,-.28E-6,0
GPS BIII-9  (PRN 20),2026-017A,2026-07-17T02:39:54.509184,2.00570476,.0021542,55.1074,87.5541,260.3436,99.4686,0,U,67588,999,43221,0,-.28E-6,0
GPS BIII-10 (PRN 13),2026-087A,2026-07-18T00:13:52.439808,2.00572901,.00204523,54.9613,206.5686,105.9232,28.4639,0,U,68791,999,145,0,.46E-6,0
